NORAD_CAT_ID,OBJECT_NAME,OBJECT_TYPE,EPOCH,MEAN_MOTION,ECCENTRICITY,INCLINATION,RA_OF_ASC_NODE,ARG_OF_PERICENTER,MEAN_ANOMALY,BSTAR,MEAN_MOTION_DOT,MEAN_MOTION_DDOT,TLE_LINE0,TLE_LINE1,TLE_LINE2,SEMIMAJOR_AXIS,PERIOD,APOGEE,PERIGEE,DECAYED
54052.0,STARLINK-5189,PAYLOAD,2023-02-04 14:00:01,15.6326276,0.0001213,53.2152,338.2937,91.6774,187.4353,-0.010584,-0.00900912,0.0,0 STARLINK-5189,1 54052U 22136B   23035.58334491 -.00900912  00000-0 -10584-1 0  9992,2 54052  53.2152 338.2937 0001213  91.6774 187.4353 15.63262760  1305,6756.377,92.115,379.061,377.422,0.0
54052.0,STARLINK-5189,PAYLOAD,2023-02-04 22:00:00,15.62643493,0.0001182,53.2155,336.669,94.6895,261.0105,-0.011423,-0.00944447,0.0,0 STARLINK-5189,1 54052U 22136B   23035.91667824 -.00944447  00000-0 -11423-1 0  9992,2 54052  53.2155 336.6690 0001182  94.6895 261.0105 15.62643493  1307,6758.162,92.152,380.825,379.228,0.0
54052.0,STARLINK-5189,PAYLOAD,2023-02-05 00:00:02,15.62465437,0.0001253,53.2154,336.2637,84.7281,20.0732,-0.011298,-0.00929134,0.0,0 STARLINK-5189,1 54052U 22136B   23036.00002315 -.00929134  00000-0 -11298-1 0  9997,2 54052  53.2154 336.2637 0001253  84.7281  20.0732 15.62465437 17419,6758.675,92.162,381.387,379.693,0.0
54052.0,STARLINK-5189,PAYLOAD,2023-02-05 14:00:01,15.61305039,0.0001267,53.2158,333.4245,87.6012,59.0343,-0.011305,-0.00891994,0.0,0 STARLINK-5189,1 54052U 22136B   23036.58335648 -.00891994  00000-0 -11305-1 0  9999,2 54052  53.2158 333.4245 0001267  87.6012  59.0343 15.61305039  1307,6762.023,92.231,384.745,383.032,0.0
54052.0,STARLINK-5189,PAYLOAD,2023-02-05 22:00:00,15.60684254,0.0001347,53.2159,331.805,94.681,126.1304,-0.012207,-0.00935836,0.0,0 STARLINK-5189,1 54052U 22136B   23036.91667824 -.00935836  00000-0 -12207-1 0  9996,2 54052  53.2159 331.8050 0001347  94.6810 126.1304 15.60684254  1308,6763.816,92.267,386.592,384.77,0.0
54052.0,STARLINK-5189,PAYLOAD,2023-02-06 06:00:00,15.59995231,0.0001283,53.2155,330.1884,85.8294,208.4632,-0.011548,-0.00868319,0.0,0 STARLINK-5189,1 54052U 22136B   23037.25001157 -.00868319  00000-0 -11548-1 0  9993,2 54052  53.2155 330.1884 0001283  85.8294 208.4632 15.59995231 17615,6765.808,92.308,388.541,386.805,0.0
54052.0,STARLINK-5189,PAYLOAD,2023-02-06 14:00:01,15.59347941,0.0001127,53.2153,328.5698,94.614,272.3722,-0.012063,-0.00883312,0.0,0 STARLINK-5189,1 54052U 22136B   23037.58334491 -.00883312  00000-0 -12063-1 0  9992,2 54052  53.2153 328.5698 0001127  94.6140 272.3722 15.59347941  1300,6767.68,92.346,390.308,388.782,0.0
54052.0,STARLINK-5189,PAYLOAD,2023-02-06 22:00:00,15.58734714,0.0001207,53.2153,326.9554,92.2669,346.6126,-0.013263,-0.00942647,0.0,0 STARLINK-5189,1 54052U 22136B   23037.91667824 -.00942647  00000-0 -13263-1 0  9998,2 54052  53.2153 326.9554 0001207  92.2669 346.6126 15.58734714  1302,6769.455,92.383,392.137,390.503,0.0
54052.0,STARLINK-5189,PAYLOAD,2023-02-07 00:00:00,15.58557363,0.0001345,53.2151,326.5524,91.5126,95.2281,-0.013092,-0.00925941,0.0,0 STARLINK-5189,1 54052U 22136B   23038.00001157 -.00925941  00000-0 -13092-1 0  9998,2 54052  53.2151 326.5524 0001345  91.5126  95.2281 15.58557363 17732,6769.968,92.393,392.744,390.923,0.0
54052.0,STARLINK-5189,PAYLOAD,2023-02-07 14:00:01,15.57389206,0.0001208,53.2151,323.7296,101.2125,119.151,-0.012846,-0.00874055,0.0,0 STARLINK-5189,1 54052U 22136B   23038.58334491 -.00874055  00000-0 -12846-1 0  9996,2 54052  53.2151 323.7296 0001208 101.2125 119.1510 15.57389206  1308,6773.353,92.462,396.037,394.4,0.0
54052.0,STARLINK-5189,PAYLOAD,2023-02-07 22:00:00,15.56784833,0.0001206,53.2152,322.1199,104.4533,185.454,-0.014395,-0.00949599,0.0,0 STARLINK-5189,1 54052U 22136B   23038.91667824 -.00949599  00000-0 -14395-1 0  9999,2 54052  53.2152 322.1199 0001206 104.4533 185.4540 15.56784833  1303,6775.106,92.498,397.788,396.154,0.0
54052.0,STARLINK-5189,PAYLOAD,2023-02-08 08:00:01,15.55974319,0.0001119,53.2149,320.11,84.6786,21.0731,-0.014787,-0.00946589,0.0,0 STARLINK-5189,1 54052U 22136B   23039.33334491 -.00946589  00000-0 -14787-1 0  9998,2 54052  53.2149 320.1100 0001119  84.6786  21.0731 15.55974319 17933,6777.459,92.547,400.082,398.565,0.0
54052.0,STARLINK-5189,PAYLOAD,2023-02-08 14:00:01,15.5542898,9.89e-05,53.2153,318.9033,100.2506,326.4488,-0.013576,-0.00859677,0.0,0 STARLINK-5189,1 54052U 22136B   23039.58334491 -.00859677  00000-0 -13576-1 0  9991,2 54052  53.2153 318.9033 0000989 100.2506 326.4488 15.55428980  1300,6779.043,92.579,401.578,400.237,0.0
54052.0,STARLINK-5189,PAYLOAD,2023-02-08 22:00:00,15.5482537,0.0001182,53.2151,317.2983,86.7092,47.1888,-0.015374,-0.00943385,0.0,0 STARLINK-5189,1 54052U 22136B   23039.91667824 -.00943385  00000-0 -15374-1 0  9995,2 54052  53.2151 317.2983 0001182  86.7092  47.1888 15.54825370  1302,6780.797,92.615,403.464,401.861,0.0
54052.0,STARLINK-5189,PAYLOAD,2023-02-09 12:00:00,15.53661664,0.0001233,53.2146,314.4918,97.0026,62.6442,-0.015254,-0.00900962,0.0,0 STARLINK-5189,1 54052U 22136B   23040.50001157 -.00900962  00000-0 -15254-1 0  9994,2 54052  53.2146 314.4918 0001233  97.0026  62.6442 15.53661664  1303,6784.183,92.684,406.884,405.211,0.0
54052.0,STARLINK-5189,PAYLOAD,2023-02-09 22:00:00,15.52870227,0.0001015,53.2143,312.491,89.6989,241.1455,-0.016428,-0.00952086,0.0,0 STARLINK-5189,1 54052U 22136B   23040.91667824 -.00952086  00000-0 -16428-1 0  9996,2 54052  53.2143 312.4910 0001015  89.6989 241.1455 15.52870227 18181,6786.488,92.732,409.042,407.664,0.0
54052.0,STARLINK-5189,PAYLOAD,2023-02-10 00:00:00,15.52686739,0.0001061,53.2141,312.0916,75.4674,1.478,-0.015928,-0.00907204,0.0,0 STARLINK-5189,1 54052U 22136B   23041.00001157 -.00907204  00000-0 -15928-1 0  9994,2 54052  53.2141 312.0916 0001061  75.4674   1.4780 15.52686739  1303,6787.022,92.742,409.607,408.167,0.0
54052.0,STARLINK-5189,PAYLOAD,2023-02-10 04:00:00,15.52342205,0.0001056,53.2142,311.2925,77.3882,211.6,-0.015218,-0.00860394,0.0,0 STARLINK-5189,1 54052U 22136B   23041.16667824 -.00860394  00000-0 -15218-1 0  9990,2 54052  53.2142 311.2925 0001056  77.3882 211.6000 15.52342205  1308,6788.027,92.763,410.608,409.175,0.0
54052.0,STARLINK-5189,PAYLOAD,2023-02-10 18:00:00,15.51245184,0.0001064,53.214,308.4943,97.7778,211.8034,-0.017089,-0.00935314,0.0,0 STARLINK-5189,1 54052U 22136B   23041.75001157 -.00935314  00000-0 -17089-1 0  9999,2 54052  53.2140 308.4943 0001064  97.7778 211.8034 15.51245184 18318,6791.226,92.829,413.814,412.369,0.0
54052.0,STARLINK-5189,PAYLOAD,2023-02-10 22:00:00,15.50908823,0.0001153,53.2139,307.6974,84.3331,76.4203,-0.017384,-0.00939676,0.0,0 STARLINK-5189,1 54052U 22136B   23041.91667824 -.00939676  00000-0 -17384-1 0  9999,2 54052  53.2139 307.6974 0001153  84.3331  76.4203 15.50908823  1306,6792.208,92.849,414.856,413.29,0.0
54052.0,STARLINK-5189,PAYLOAD,2023-02-11 08:00:01,15.49975605,9.59e-05,53.2142,305.7043,81.2014,246.6027,-0.0026547,-0.00148765,0.0,0 STARLINK-5189,1 54052U 22136B   23042.33334491 -.00148765  00000-0 -26547-2 0  9990,2 54052  53.2142 305.7043 0000959  81.2014 246.6027 15.49975605 18407,6794.934,92.905,417.451,416.148,0.0
54052.0,STARLINK-5189,PAYLOAD,2023-02-11 14:00:01,15.49863217,9.28e-05,53.2147,304.508,94.1185,189.4209,0.00062567,0.00035191,0.0,0 STARLINK-5189,1 54052U 22136B   23042.58334491  .00035191  00000-0  62567-3 0  9996,2 54052  53.2147 304.5080 0000928  94.1185 189.4209 15.49863217  1300,6795.263,92.911,417.758,416.497,0.0
54052.0,STARLINK-5189,PAYLOAD,2023-02-11 22:00:00,15.4991565,0.0001064,53.215,302.9159,86.9906,257.445,-0.0009974,-0.00056711,0.0,0 STARLINK-5189,1 54052U 22136B   23042.91667824 -.00056711  00000-0 -99740-3 0  9998,2 54052  53.2150 302.9159 0001064  86.9906 257.4450 15.49915650  1308,6795.11,92.908,417.698,416.252,0.0
54052.0,STARLINK-5189,PAYLOAD,2023-02-12 00:00:00,15.49919975,0.0001147,53.2149,302.5182,81.3972,8.2695,-0.0014952,-0.00084506,0.0,0 STARLINK-5189,1 54052U 22136B   23043.00001157 -.00084506  00000-0 -14952-2 0  9994,2 54052  53.2149 302.5182 0001147  81.3972   8.2695 15.49919975 18509,6795.097,92.908,417.741,416.183,0.0
54052.0,STARLINK-5189,PAYLOAD,2023-02-12 10:00:00,15.49939962,0.0001156,53.215,300.5256,88.6575,167.1473,-0.018212,-0.00950013,0.0,0 STARLINK-5189,1 54052U 22136B   23043.41667824 -.00950013  00000-0 -18212-1 0  9995,2 54052  53.2150 300.5256 0001156  88.6575 167.1473 15.49939962 18574,6795.039,92.907,417.689,416.118,0.0
54052.0,STARLINK-5189,PAYLOAD,2023-02-12 14:00:01,15.49571582,0.0001114,53.215,299.7286,85.235,20.9595,-0.016646,-0.00852756,0.0,0 STARLINK-5189,1 54052U 22136B   23043.58334491 -.00852756  00000-0 -16646-1 0  9998,2 54052  53.2150 299.7286 0001114  85.2350  20.9595 15.49571582  1308,6796.115,92.929,418.738,417.223,0.0
54052.0,STARLINK-5189,PAYLOAD,2023-02-13 08:00:01,15.48160823,0.0001238,53.2142,296.1506,85.9687,244.5018,-0.019782,-0.00967395,0.0,0 STARLINK-5189,1 54052U 22136B   23044.33334491 -.00967395  00000-0 -19782-1 0  9992,2 54052  53.2142 296.1506 0001238  85.9687 244.5018 15.48160823 18710,6800.243,93.014,422.95,421.267,0.0
54052.0,STARLINK-5189,PAYLOAD,2023-02-13 14:00:01,15.47624854,0.0001249,53.2142,294.9583,98.925,185.4417,-0.018108,-0.00864937,0.0,0 STARLINK-5189,1 54052U 22136B   23044.58334491 -.00864937  00000-0 -18108-1 0  9998,2 54052  53.2142 294.9583 0001249  98.9250 185.4417 15.47624854  1304,6801.813,93.046,424.528,422.829,0.0
54052.0,STARLINK-5189,PAYLOAD,2023-02-13 22:00:00,15.46992011,0.0001219,53.2142,293.3728,89.2975,252.8921,-0.01949,-0.00919059,0.0,0 STARLINK-5189,1 54052U 22136B   23044.91667824 -.00919059  00000-0 -19490-1 0  9995,2 54052  53.2142 293.3728 0001219  89.2975 252.8921 15.46992011 18806,6803.668,93.084,426.363,424.704,0.0
54052.0,STARLINK-5189,PAYLOAD,2023-02-14 14:00:01,15.456802,0.0001225,53.2142,290.202,93.7839,1.7113,-0.019712,-0.0089056,0.0,0 STARLINK-5189,1 54052U 22136B   23045.58334491 -.00890560  00000-0 -19712-1 0  9992,2 54052  53.2142 290.2020 0001225  93.7839   1.7113 15.45680200  1307,6807.517,93.163,430.216,428.548,0.0
